NORAD_CAT_ID,OBJECT_NAME,OBJECT_TYPE,EPOCH,MEAN_MOTION,ECCENTRICITY,INCLINATION,RA_OF_ASC_NODE,ARG_OF_PERICENTER,MEAN_ANOMALY,BSTAR,MEAN_MOTION_DOT,MEAN_MOTION_DDOT,TLE_LINE0,TLE_LINE1,TLE_LINE2,SEMIMAJOR_AXIS,PERIOD,APOGEE,PERIGEE,DECAYED
52846.0,STARLINK-4212,PAYLOAD,2024-02-27 11:58:25,15.0883991,0.0001573,53.2164,121.4653,84.0742,276.043,1.6904e-05,-1.9e-07,0.0,0 STARLINK-4212,1 52846U 22062S   24058.49890292 -.00000019  00000-0  16904-4 0  9994,2 52846  53.2164 121.4653 0001573  84.0742 276.0430 15.08839910 93896,6917.881,95.438,540.834,538.657,0.0
52846.0,STARLINK-4212,PAYLOAD,2024-02-27 21:30:44,15.08840055,0.0001569,53.2162,119.6816,80.9655,279.1515,6.9292e-06,-1.78e-06,0.0,0 STARLINK-4212,1 52846U 22062S   24058.89634362 -.00000178  00000-0  69292-5 0  9997,2 52846  53.2162 119.6816 0001569  80.9655 279.1515 15.08840055 93954,6917.88,95.438,540.831,538.66,0.0
52846.0,STARLINK-4212,PAYLOAD,2024-02-28 10:13:49,15.08843487,0.0001452,53.2158,117.3026,83.5918,276.5239,0.00021049,3.064e-05,0.0,0 STARLINK-4212,1 52846U 22062S   24059.42626297  .00003064  00000-0  21049-3 0  9997,2 52846  53.2158 117.3026 0001452  83.5918 276.5239 15.08843487 94529,6917.87,95.437,540.739,538.73,0.0
52846.0,STARLINK-4212,PAYLOAD,2024-02-28 13:24:35,15.08847161,0.0001648,53.2157,116.7075,90.5175,269.6006,0.00017988,2.576e-05,0.0,0 STARLINK-4212,1 52846U 22062S   24059.55874078  .00002576  00000-0  17988-3 0  9997,2 52846  53.2157 116.7075 0001648  90.5175 269.6006 15.08847161 94051,6917.859,95.437,540.864,538.583,0.0
52846.0,STARLINK-4212,PAYLOAD,2024-02-29 03:43:03,15.0883816,0.0001604,53.2145,114.0309,81.1756,278.9417,0.00013433,1.85e-05,0.0,0 STARLINK-4212,1 52846U 22062S   24060.15490619  .00001850  00000-0  13433-3 0  9995,2 52846  53.2145 114.0309 0001604  81.1756 278.9417 15.08838160 94634,6917.886,95.438,540.861,538.641,0.0
52846.0,STARLINK-4212,PAYLOAD,2024-02-29 10:04:36,15.08844709,0.0001614,53.2149,112.8405,85.2548,274.8628,0.00011343,1.518e-05,0.0,0 STARLINK-4212,1 52846U 22062S   24060.41986289  .00001518  00000-0  11343-3 0  9996,2 52846  53.2149 112.8405 0001614  85.2548 274.8628 15.08844709 94181,6917.866,95.437,540.848,538.614,0.0
52846.0,STARLINK-4212,PAYLOAD,2024-03-01 09:55:23,15.08842492,0.0001554,53.2154,108.3815,85.2896,274.8273,8.0114e-05,9.87e-06,0.0,0 STARLINK-4212,1 52846U 22062S   24061.41346448  .00000987  00000-0  80114-4 0  9996,2 52846  53.2154 108.3815 0001554  85.2896 274.8273 15.08842492 94331,6917.873,95.437,540.813,538.663,0.0
52846.0,STARLINK-4212,PAYLOAD,2024-03-01 19:27:42,15.08842887,0.0001506,53.2155,106.5974,82.9987,277.1177,2.9485e-05,1.81e-06,0.0,0 STARLINK-4212,1 52846U 22062S   24061.81090460  .00000181  00000-0  29485-4 0  9990,2 52846  53.2155 106.5974 0001506  82.9987 277.1177 15.08842887 94393,6917.872,95.437,540.778,538.695,0.0
52846.0,STARLINK-4212,PAYLOAD,2024-03-02 09:46:10,15.08844764,0.0001517,53.2161,103.9202,88.3039,271.8127,0.00010948,1.455e-05,0.0,0 STARLINK-4212,1 52846U 22062S   24062.40706212  .00001455  00000-0  10948-3 0  9993,2 52846  53.2161 103.9202 0001517  88.3039 271.8127 15.08844764 94487,6917.866,95.437,540.78,538.681,0.0
52846.0,STARLINK-4212,PAYLOAD,2024-03-03 11:12:20,15.08839664,0.0001426,53.2176,99.162,91.8171,268.2985,4.7517e-05,4.68e-06,0.0,0 STARLINK-4212,1 52846U 22062S   24063.46690886  .00000468  00000-0  47517-4 0  9995,2 52846  53.2176  99.1620 0001426  91.8171 268.2985 15.08839664 95136,6917.881,95.438,540.733,538.76,0.0
52846.0,STARLINK-4212,PAYLOAD,2024-03-04 11:03:07,15.08854963,0.000162,53.2168,94.6993,92.6085,267.5093,0.00017811,2.549e-05,0.0,0 STARLINK-4212,1 52846U 22062S   24064.46049808  .00002549  00000-0  17811-3 0  9993,2 52846  53.2168  94.6993 0001620  92.6085 267.5093 15.08854963 95286,6917.835,95.437,540.82,538.579,0.0
52846.0,STARLINK-4212,PAYLOAD,2024-03-04 19:00:03,15.08837821,0.0002011,53.217,93.212,80.1694,279.9525,7.402e-05,8.9e-06,0.0,0 STARLINK-4212,1 52846U 22062S   24064.79170842  .00000890  00000-0  74020-4 0  9995,2 52846  53.2170  93.2120 0002011  80.1694 279.9525 15.08837821 95336,6917.887,95.438,541.143,538.361,0.0
52846.0,STARLINK-4212,PAYLOAD,2024-03-05 10:53:55,15.0882579,0.0001654,53.2163,90.2418,84.393,275.7251,-9.8328e-05,-1.852e-05,0.0,0 STARLINK-4212,1 52846U 22062S   24065.45411672 -.00001852  00000-0 -98328-4 0  9996,2 52846  53.2163  90.2418 0001654  84.3930 275.7251 15.08825790 94944,6917.924,95.438,540.933,538.645,0.0
52846.0,STARLINK-4212,PAYLOAD,2024-03-05 18:50:51,15.08832405,0.0001632,53.2163,88.7552,82.9092,277.2086,0.00033958,5.119e-05,0.0,0 STARLINK-4212,1 52846U 22062S   24065.78531861  .00005119  00000-0  33958-3 0  9990,2 52846  53.2163  88.7552 0001632  82.9092 277.2086 15.08832405 95488,6917.904,95.438,540.898,538.64,0.0
52846.0,STARLINK-4212,PAYLOAD,2024-03-06 10:44:42,15.08855216,0.0001613,53.2155,85.7811,82.4973,277.6203,0.0011935,0.00018765,0.0,0 STARLINK-4212,1 52846U 22062S   24066.44771907  .00018765  00000-0  11935-2 0  9992,2 52846  53.2155  85.7811 0001613  82.4973 277.6203 15.08855216 95587,6917.834,95.437,540.815,538.583,0.0
52846.0,STARLINK-4212,PAYLOAD,2024-03-06 18:41:38,15.0885067,0.0001947,53.2175,84.291,91.2896,268.832,0.00060453,9.349e-05,0.0,0 STARLINK-4212,1 52846U 22062S   24066.77891863  .00009349  00000-0  60453-3 0  9990,2 52846  53.2175  84.2910 0001947  91.2896 268.8320 15.08850670 95632,6917.848,95.437,541.06,538.366,0.0
52846.0,STARLINK-4212,PAYLOAD,2024-03-07 07:24:43,15.08855676,0.0001595,53.2153,81.9139,87.3879,272.7296,0.00047141,7.226e-05,0.0,0 STARLINK-4212,1 52846U 22062S   24067.30883369  .00007226  00000-0  47141-3 0  9993,2 52846  53.2153  81.9139 0001595  87.3879 272.7296 15.08855676 95223,6917.832,95.437,540.801,538.594,0.0
52846.0,STARLINK-4212,PAYLOAD,2024-03-08 05:40:07,15.0884269,0.0001537,53.2153,77.7476,97.7632,262.3535,0.00011177,1.491e-05,0.0,0 STARLINK-4212,1 52846U 22062S   24068.23619391  .00001491  00000-0  11177-3 0  9996,2 52846  53.2153  77.7476 0001537  97.7632 262.3535 15.08842690 95850,6917.872,95.437,540.8,538.674,0.0
52846.0,STARLINK-4212,PAYLOAD,2024-03-08 10:26:16,15.08838368,0.0001655,53.2161,76.8571,95.0156,265.1025,-4.3896e-05,-9.87e-06,0.0,0 STARLINK-4212,1 52846U 22062S   24068.43491767 -.00000987  00000-0 -43896-4 0  9998,2 52846  53.2161  76.8571 0001655  95.0156 265.1025 15.08838368 95399,6917.885,95.438,540.895,538.605,0.0
52846.0,STARLINK-4212,PAYLOAD,2024-03-09 05:30:54,15.0884235,0.0001642,53.2171,73.2892,96.1765,263.9414,1.6119e-05,-3.1e-07,0.0,0 STARLINK-4212,1 52846U 22062S   24069.22979723 -.00000031  00000-0  16119-4 0  9996,2 52846  53.2171  73.2892 0001642  96.1765 263.9414 15.08842350 96004,6917.873,95.437,540.874,538.602,0.0
52846.0,STARLINK-4212,PAYLOAD,2024-03-09 10:17:03,15.08848788,0.0001542,53.2167,72.3991,91.2242,268.8927,5.3893e-05,5.7e-06,0.0,0 STARLINK-4212,1 52846U 22062S   24069.42851220  .00000570  00000-0  53893-4 0  9996,2 52846  53.2167  72.3991 0001542  91.2242 268.8927 15.08848788 95546,6917.854,95.437,540.785,538.652,0.0
52846.0,STARLINK-4212,PAYLOAD,2024-03-09 16:38:36,15.08844011,0.0001597,53.2167,71.2081,88.3807,271.7368,2.0096e-05,3.2e-07,0.0,0 STARLINK-4212,1 52846U 22062S   24069.69347475  .00000032  00000-0  20096-4 0  9999,2 52846  53.2167  71.2081 0001597  88.3807 271.7368 15.08844011 95589,6917.868,95.437,540.838,538.628,0.0
52846.0,STARLINK-4212,PAYLOAD,2024-03-10 06:57:04,15.08840008,0.0001586,53.2175,68.5337,92.8209,267.2964,0.00013514,1.863e-05,0.0,0 STARLINK-4212,1 52846U 22062S   24070.28963627  .00001863  00000-0  13514-3 0  9998,2 52846  53.2175  68.5337 0001586  92.8209 267.2964 15.08840008 96164,6917.88,95.438,540.843,538.648,0.0
52846.0,STARLINK-4212,PAYLOAD,2024-03-10 16:29:23,15.08839084,0.0001586,53.2175,66.7495,90.4332,269.6841,0.00010558,1.393e-05,0.0,0 STARLINK-4212,1 52846U 22062S   24070.68707820  .00001393  00000-0  10558-3 0  9996,2 52846  53.2175  66.7495 0001586  90.4332 269.6841 15.08839084 95734,6917.883,95.438,540.845,538.651,0.0
52846.0,STARLINK-4212,PAYLOAD,2024-03-11 05:12:29,15.08838462,0.0001801,53.2184,64.3706,92.26,267.8599,4.8685e-06,-2.11e-06,0.0,0 STARLINK-4212,1 52846U 22062S   24071.21700360 -.00000211  00000-0  48685-5 0  9991,2 52846  53.2184  64.3706 0001801  92.2600 267.8599 15.08838462 96304,6917.885,95.438,540.996,538.504,0.0
52846.0,STARLINK-4212,PAYLOAD,2024-03-11 06:47:52,15.0884012,0.0001534,53.2169,64.0731,91.8168,268.3,3.4836e-05,2.66e-06,0.0,0 STARLINK-4212,1 52846U 22062S   24071.28324081  .00000266  00000-0  34836-4 0  9991,2 52846  53.2169  64.0731 0001534  91.8168 268.3000 15.08840120 95822,6917.88,95.438,540.806,538.684,0.0
52846.0,STARLINK-4212,PAYLOAD,2024-03-12 05:03:15,15.08865977,0.0001848,53.2186,59.9126,101.7511,258.3689,-0.00028707,-4.857e-05,0.0,0 STARLINK-4212,1 52846U 22062S   24072.21059422 -.00004857  00000-0 -28707-3 0  9990,2 52846  53.2186  59.9126 0001848 101.7511 258.3689 15.08865977 96452,6917.801,95.436,540.944,538.388,0.0
52846.0,STARLINK-4212,PAYLOAD,2024-03-12 08:14:01,15.08846135,0.000164,53.2181,59.3171,97.3381,262.7798,0.0001016,1.33e-05,0.0,0 STARLINK-4212,1 52846U 22062S   24072.34307760  .00001330  00000-0  10160-3 0  9990,2 52846  53.2181  59.3171 0001640  97.3381 262.7798 15.08846135 96473,6917.862,95.437,540.861,538.592,0.0
52846.0,STARLINK-4212,PAYLOAD,2024-03-12 16:10:57,15.08842932,0.0001524,53.2173,57.8283,90.564,269.5527,5.7519e-05,6.28e-06,0.0,0 STARLINK-4212,1 52846U 22062S   24072.67428031  .00000628  00000-0  57519-4 0  9990,2 52846  53.2173  57.8283 0001524  90.5640 269.5527 15.08842932 96033,6917.871,95.437,540.791,538.682,0.0
52846.0,STARLINK-4212,PAYLOAD,2024-03-13 04:54:03,15.08840276,0.0001438,53.2169,55.4497,92.7191,267.3966,9.0696e-05,1.156e-05,0.0,0 STARLINK-4212,1 52846U 22062S   24073.20420184  .00001156  00000-0  90696-4 0  9991,2 52846  53.2169  55.4497 0001438  92.7191 267.3966 15.08840276 96603,6917.88,95.438,540.739,538.75,0.0
